[{"OBJECT_NAME":"LEMUR-2-DEMBITZ","OBJECT_ID":"2017-042T","EPOCH":"2026-03-09T11:23:53.232288","MEAN_MOTION":15.26947128,"ECCENTRICITY":0.00069617,"INCLINATION":97.3807,"RA_OF_ASC_NODE":250.9241,"ARG_OF_PERICENTER":17.1421,"MEAN_ANOMALY":343.0051,"EPHEMERIS_TYPE":0,"CLASSIFICATION_TYPE":"U","NORAD_CAT_ID":42842,"ELEMENT_SET_NO":999,"REV_AT_EPOCH":47311,"BSTAR":0.00076560825,"MEAN_MOTION_DOT":0.00020231,"MEAN_MOTION_DDOT":0},{"OBJECT_NAME":"STARLINK-35689","OBJECT_ID":"2025-263K","EPOCH":"2026-03-08T20:00:45.499680","MEAN_MOTION":15.27592341,"ECCENTRICITY":2.688e-5,"INCLINATION":42.9976,"RA_OF_ASC_NODE":355.9128,"ARG_OF_PERICENTER":198.9212,"MEAN_ANOMALY":161.1629,"EPHEMERIS_TYPE":0,"CLASSIFICATION_TYPE":"U","NORAD_CAT_ID":66494,"ELEMENT_SET_NO":999,"REV_AT_EPOCH":1876,"BSTAR":0.0012986677,"MEAN_MOTION_DOT":0.00035661,"MEAN_MOTION_DDOT":0}]
